CCSDS_OMM_VERS,COMMENT,CREATION_DATE,ORIGINATOR,OBJECT_NAME,OBJECT_ID,CENTER_NAME,REF_FRAME,TIME_SYSTEM,MEAN_ELEMENT_THEORY,EPOCH,MEAN_MOTION,ECCENTRICITY,INCLINATION,RA_OF_ASC_NODE,ARG_OF_PERICENTER,MEAN_ANOMALY,EPHEMERIS_TYPE,CLASSIFICATION_TYPE,NORAD_CAT_ID,ELEMENT_SET_NO,REV_AT_EPOCH,BSTAR,MEAN_MOTION_DOT,MEAN_MOTION_DDOT,SEMIMAJOR_AXIS,PERIOD,APOAPSIS,PERIAPSIS,OBJECT_TYPE,RCS_SIZE,COUNTRY_CODE,LAUNCH_DATE,SITE,DECAY_DATE,FILE,GP_ID,TLE_LINE0,TLE_LINE1,TLE_LINE2,NORAD_KEY,JCAT,DeepCat,Satcat,Piece,Active,Type,Name,LDate,Parent,Owner,State,SDate,ExpandedStatus,DDate,ODate,Period,Perigee,PF,Apogee,AF,Inc,IF,OpOrbit,SATCAT_KEY
3.0,GENERATED VIA SPACE-TRACK.ORG API,2026-05-05T10:20:49,18 SPCS,INTELSAT 603,1990-021A,EARTH,TEME,UTC,SGP4,2026-05-04T20:12:17.695008,0.99480971,0.00052011,13.9892,9.6473,51.7374,132.7299,0,U,20523,999,12497,0.00000000000000,0.00000028,0.0000000000000,42387.893,1447.513,36031.805,35987.712,PAYLOAD,LARGE,ITSO,1990-03-14,AFETR,,5174649,322142763,0 INTELSAT 603,1 20523U 90021A   26124.84187147  .00000028  00000-0  00000-0 0  9999,2 20523  13.9892   9.6473 0005201  51.7374 132.7299  0.99480971124973,20523,S20523,-,20523,1990-021A,P,P,INTELSAT 603,1990 Mar 14,S20524,SESINTU,US,1990 Mar 14 2100?,In Earth orbit,-,2026 May  4 ,    1447.513 ,   35987, ,   36031, , 13.99 , ,GEO/ID,20523
3.0,GENERATED VIA SPACE-TRACK.ORG API,2026-05-06T14:56:52,18 SPCS,GALAXY 6,1990-091B,EARTH,TEME,UTC,SGP4,2026-05-06T11:50:15.840096,0.99763649,0.0004184,13.9991,10.319,255.3076,261.1644,0,U,20873,999,4603,0.00000000000000,-0.00000349,0.0000000000000,42307.785,1443.412,35947.352,35911.949,PAYLOAD,LARGE,US,1990-10-12,FRGUI,,5177427,322303707,0 GALAXY 6,1 20873U 90091B   26126.49323889 -.00000349  00000-0  00000+0 0  9998,2 20873  13.9991  10.3190 0004184 255.3076 261.1644  0.99763649 46033,20873,S20873,-,20873,1990-091B,P,P,Galaxy 6,1990 Oct 12,S20874,SESINTU,US,1990 Oct 12 2323,In Earth orbit,-,2026 May  3 ,    1443.390 ,   35911, ,   35947, , 14.00 , ,GEO/ID,20873
3.0,GENERATED VIA SPACE-TRACK.ORG API,2026-05-06T14:56:52,18 SPCS,GALAXY 6,1990-091B,EARTH,TEME,UTC,SGP4,2026-05-06T11:50:15.840096,0.99763649,0.0004184,13.9991,10.319,255.3076,261.1644,0,U,20873,999,4603,0.00000000000000,-0.00000349,0.0000000000000,42307.785,1443.412,35947.352,35911.949,PAYLOAD,LARGE,US,1990-10-12,FRGUI,,5177427,322303707,0 GALAXY 6,1 20873U 90091B   26126.49323889 -.00000349  00000-0  00000+0 0  9998,2 20873  13.9991  10.3190 0004184 255.3076 261.1644  0.99763649 46033,20873,A04895,-,20873,1990-091,C,C AM,Star 30BP S/N 063,1990 Oct 12,S20873,HCIE,US,1990 Oct 17 1556?,Attached to S20873 Galaxy 6,-,-,-,-,-,-,-,-,-,-,20873
3.0,GENERATED VIA SPACE-TRACK.ORG API,2026-05-06T14:56:52,18 SPCS,GORIZONT 29,1993-072A,EARTH,TEME,UTC,SGP4,2026-05-06T11:27:28.545408,1.00112425,0.0011769,14.0075,347.6452,1.0509,135.7041,0,U,22907,999,11875,0.00000000000000,-0.00000193,0.0000000000000,42209.466,1438.383,35881.007,35781.654,PAYLOAD,LARGE,CIS,1993-11-18,TTMTR,,5177490,322305490,0 GORIZONT 29,1 22907U 93072A   26126.47741372 -.00000193  00000-0  00000+0 0  9996,2 22907  14.0075 347.6452 0011769   1.0509 135.7041  1.00112425118758,22907,S22907,-,22907,1993-072A,P,P,AP-1,1993 Nov 18,S22910,ABSHK,UK,1993 Nov 18 2032?,In Earth orbit,-,2026 May  5 ,    1438.379 ,   35781, ,   35880, , 14.01 , ,GEO/ID,22907
3.0,GENERATED VIA SPACE-TRACK.ORG API,2026-05-06T10:08:52,18 SPCS,GALAXY 8,1997-078A,EARTH,TEME,UTC,SGP4,2026-05-06T00:58:15.097728,0.99704353,0.00082379,14.023,10.213,40.2681,148.2025,0,U,25086,999,10352,0.00000000000000,-0.00000286,0.0000000000000,42324.558,1444.27,35981.289,35911.556,PAYLOAD,LARGE,US,1997-12-08,AFETR,,5176958,322265272,0 GALAXY 8,1 25086U 97078A   26126.04045252 -.00000286  00000-0  00000-0 0  9998,2 25086  14.0230  10.2130 0008238  40.2681 148.2025  0.99704353103525,25086,S25086,-,25086,1997-078A,P,P,Galaxy 8i,1997 Dec  8,S25087,SESINTU,US,1997 Dec  9 0021,In Earth orbit,-,2026 May  5 ,    1444.266 ,   35911, ,   35981, , 14.02 , ,GEO/ID,25086
3.0,GENERATED VIA SPACE-TRACK.ORG API,2026-05-06T14:56:52,18 SPCS,USA 75,1991-080B,EARTH,TEME,UTC,SGP4,2026-05-06T08:53:38.669280,0.99191076,0.0004589,14.026,345.8062,83.4703,98.7599,0,U,21805,999,2529,0.00000000000000,-0.00000219,0.0000000000000,42470.441,1451.744,36111.796,36072.817,PAYLOAD,,US,1991-11-24,AFETR,,5177458,322304092,0 USA 75,1 21805U 91080B   26126.37058645 -.00000219  00000-0  00000+0 0  9991,2 21805  14.0260 345.8062 0004589  83.4703  98.7599  0.99191076 25297,21805,S21805,-,21805,1991-080B,P,P ---S- c,DSP F16,1991 Nov 24,S21807,SFSSC,US,1991 Nov 25 1239,In Earth orbit,-,2026 May  4 ,    1451.749 ,   36072, ,   36111, , 14.03 , ,GEO/ID,21805
3.0,GENERATED VIA SPACE-TRACK.ORG API,2026-05-06T14:56:52,18 SPCS,USA 65,1990-095A,EARTH,TEME,UTC,SGP4,2026-05-06T05:39:34.784064,0.9839735,0.0004715,14.0301,344.3375,77.5793,113.9263,0,U,20929,999,2505,0.00000000000000,-0.00000027,0.0000000000000,42698.528,1463.454,36340.526,36300.261,PAYLOAD,,US,1990-11-13,AFETR,,5177429,322303233,0 USA 65,1 20929U 90095A   26126.23581926 -.00000027  00000-0  00000+0 0  9997,2 20929  14.0301 344.3375 0004715  77.5793 113.9263  0.98397350 25058,20929,S20929,-,20929,1990-095A,P,P ------c,DSP F15,1990 Nov 13,S20932,SFSSC,US,1990 Nov 13 0719?,In Earth orbit,-,2026 May  4 ,    1463.460 ,   36300, ,   36340, , 14.03 , ,GEO/ID,20929
3.0,GENERATED VIA SPACE-TRACK.ORG API,2026-05-06T14:56:52,18 SPCS,RADUGA 30,1993-062A,EARTH,TEME,UTC,SGP4,2026-05-06T11:21:45.927072,1.00270201,0.0005327,14.0349,347.4585,328.1499,160.1997,0,U,22836,999,4558,0.00000000000000,-0.00000161,0.0000000000000,42165.176,1436.12,35809.502,35764.58,PAYLOAD,MEDIUM,CIS,1993-09-30,TTMTR,,5177488,322305467,0 RADUGA 30,1 22836U 93062A   26126.47344823 -.00000161  00000-0  00000+0 0  9991,2 22836  14.0349 347.4585 0005327 328.1499 160.1997  1.00270201 45581,22836,S22836,-,22836,1993-062A,P,P,Raduga,1993 Sep 30,S22839,VVKOV,RU,1993 Sep 30 2342?,In Earth orbit,-,2026 May  5 ,    1436.117 ,   35764, ,   35809, , 14.04 , ,GEO/I,22836
3.0,GENERATED VIA SPACE-TRACK.ORG API,2026-05-06T14:56:52,18 SPCS,ANIK E2,1991-026A,EARTH,TEME,UTC,SGP4,2026-05-06T11:44:53.308896,0.99129498,0.0006486,14.044,12.7035,31.7278,113.4552,0,U,21222,999,11665,0.00000000000000,-0.00000220,0.0000000000000,42488.028,1452.645,36137.45,36082.335,PAYLOAD,LARGE,CA,1991-04-04,FRGUI,,5177438,322303844,0 ANIK E2,1 21222U 91026A   26126.48950589 -.00000220  00000-0  00000+0 0  9996,2 21222  14.0440  12.7035 0006486  31.7278 113.4552  0.99129498116655,21222,S21222,-,21222,1991-026A,P,P,Anik E2,1991 Apr  4,S21223,TCANL,CA,1991 Apr  4 2352,In Earth orbit,-,2026 May  4 ,    1452.633 ,   36082, ,   36137, , 14.04 , ,GEO/ID,21222
3.0,GENERATED VIA SPACE-TRACK.ORG API,2026-05-06T14:46:56,18 SPCS,GORIZONT 24,1991-074A,EARTH,TEME,UTC,SGP4,2026-05-06T08:53:38.669280,0.98445837,0.0021433,14.0484,343.8306,268.2802,280.7112,0,U,21759,999,12454,0.00000000000000,-0.00000209,0.0000000000000,42684.507,1462.733,36397.858,36214.886,PAYLOAD,LARGE,CIS,1991-10-23,TTMTR,,5177321,322301836,0 GORIZONT 24,1 21759U 91074A   26126.37058645 -.00000209  00000-0  00000+0 0  9991,2 21759  14.0484 343.8306 0021433 268.2802 280.7112  0.98445837124540,21759,S21759,-,21759,1991-074A,P,P,Gorizont,1991 Oct 23,S21762,KS,SU,1991 Oct 23 2202?,In Earth orbit,-,2026 May  4 ,    1462.740 ,   36214, ,   36398, , 14.05 , ,GEO/ID,21759
3.0,GENERATED VIA SPACE-TRACK.ORG API,2026-05-06T14:56:52,18 SPCS,USA 115,1995-060A,EARTH,TEME,UTC,SGP4,2026-05-06T06:03:38.675808,1.00367676,8.37e-05,14.0586,4.061,63.8056,138.7394,0,U,23712,999,3246,0.00000000000000,-0.00000101,0.0000000000000,42137.872,1434.725,35763.264,35756.21,PAYLOAD,LARGE,US,1995-11-06,AFETR,,5177516,322305818,0 USA 115,1 23712U 95060A   26126.25253097 -.00000101  00000-0  00000+0 0  9997,2 23712  14.0586   4.0610 0000837  63.8056 138.7394  1.00367676 32464,23712,S23712,-,23712,1995-060A,A,P ------c,Milstar 2,1995 Nov  6,S23713,SFSSC,US,1995 Nov  6 1150?,In Earth orbit,-,2026 May  4 ,    1434.725 ,   35756, ,   35763, , 14.06 , ,GEO/ID,23712
3.0,GENERATED VIA SPACE-TRACK.ORG API,2026-05-06T10:08:52,18 SPCS,STTW-3,1988-111A,EARTH,TEME,UTC,SGP4,2026-05-06T04:50:09.525696,1.00209844,0.00036247,14.0728,345.8819,182.2084,181.7422,0,U,19710,999,13042,0.00000000000000,0.00000080,0.0000000000000,42182.105,1436.985,35819.26,35788.68,PAYLOAD,LARGE,PRC,1988-12-22,XSC,,5176958,322263389,0 STTW-3,1 19710U 88111A   26126.20149914  .00000080  00000-0  00000-0 0  9992,2 19710  14.0728 345.8819 0003625 182.2084 181.7422  1.00209844130424,19710,S19710,-,19710,1988-111A,P,P,Zhongxing 2,1988 Dec 22,A04625,CHISAE,CN,1988 Dec 22 1306?,In Earth orbit,-,2026 May  4 ,    1436.992 ,   35789, ,   35818, , 14.07 , ,GEO/ID,19710
3.0,GENERATED VIA SPACE-TRACK.ORG API,2026-05-06T10:08:52,18 SPCS,STTW-3,1988-111A,EARTH,TEME,UTC,SGP4,2026-05-06T04:50:09.525696,1.00209844,0.00036247,14.0728,345.8819,182.2084,181.7422,0,U,19710,999,13042,0.00000000000000,0.00000080,0.0000000000000,42182.105,1436.985,35819.26,35788.68,PAYLOAD,LARGE,PRC,1988-12-22,XSC,,5176958,322263389,0 STTW-3,1 19710U 88111A   26126.20149914  .00000080  00000-0  00000-0 0  9992,2 19710  14.0728 345.8819 0003625 182.2084 181.7422  1.00209844130424,19710,A04626,-,19710,1988-111,C,C AM,FG-15B,1988 Dec 22,S19710,CNSA,CN,1988 Dec 24 0210?,Attached to S19710 Zhongxing 2,-,-,-,-,-,-,-,-,-,-,19710
